CCSDS_OMM_VERS = 2.0
CREATION_DATE  = 
ORIGINATOR     = 

OBJECT_NAME    = STARLINK-36889
OBJECT_ID      = 2026-039W
CENTER_NAME    = EARTH
REF_FRAME      = TEME
TIME_SYSTEM    = UTC
MEAN_ELEMENT_THEORY = SGP/SGP4

EPOCH          = 2026-03-05T16:00:00.999936
MEAN_MOTION    = 15.98754747
ECCENTRICITY   = .0001815
INCLINATION    = 42.9980
RA_OF_ASC_NODE = 79.7928
ARG_OF_PERICENTER = 275.2592
MEAN_ANOMALY   = 149.7007

EPHEMERIS_TYPE = 0
CLASSIFICATION_TYPE = U
NORAD_CAT_ID   = 68006
ELEMENT_SET_NO = 999
REV_AT_EPOCH   = 223
BSTAR          = -.29695E-2
MEAN_MOTION_DOT = -.1468742E-1
MEAN_MOTION_DDOT = .65366E-3

CCSDS_OMM_VERS = 2.0
CREATION_DATE  = 
ORIGINATOR     = 

OBJECT_NAME    = STARLINK-36592
OBJECT_ID      = 2026-039X
CENTER_NAME    = EARTH
REF_FRAME      = TEME
TIME_SYSTEM    = UTC
MEAN_ELEMENT_THEORY = SGP/SGP4

EPOCH          = 2026-03-05T16:00:00.999936
MEAN_MOTION    = 15.98883217
ECCENTRICITY   = .0001792
INCLINATION    = 42.9980
RA_OF_ASC_NODE = 79.7893
ARG_OF_PERICENTER = 273.0445
MEAN_ANOMALY   = 153.4885

EPHEMERIS_TYPE = 0
CLASSIFICATION_TYPE = U
NORAD_CAT_ID   = 68007
ELEMENT_SET_NO = 999
REV_AT_EPOCH   = 223
BSTAR          = -.295E-2
MEAN_MOTION_DOT = -.1469756E-1
MEAN_MOTION_DDOT = .65538E-3

CCSDS_OMM_VERS = 2.0
CREATION_DATE  = 
ORIGINATOR     = 

OBJECT_NAME    = STARLINK-36911
OBJECT_ID      = 2026-039Y
CENTER_NAME    = EARTH
REF_FRAME      = TEME
TIME_SYSTEM    = UTC
MEAN_ELEMENT_THEORY = SGP/SGP4

EPOCH          = 2026-03-05T16:00:00.999936
MEAN_MOTION    = 15.99013799
ECCENTRICITY   = .0001864
INCLINATION    = 42.9982
RA_OF_ASC_NODE = 79.7851
ARG_OF_PERICENTER = 271.0297
MEAN_ANOMALY   = 157.1847

EPHEMERIS_TYPE = 0
CLASSIFICATION_TYPE = U
NORAD_CAT_ID   = 68008
ELEMENT_SET_NO = 999
REV_AT_EPOCH   = 223
BSTAR          = -.29224E-2
MEAN_MOTION_DOT = -.1466866E-1
MEAN_MOTION_DDOT = .65392E-3

CCSDS_OMM_VERS = 2.0
CREATION_DATE  = 
ORIGINATOR     = 

OBJECT_NAME    = STARLINK-36956
OBJECT_ID      = 2026-039Z
CENTER_NAME    = EARTH
REF_FRAME      = TEME
TIME_SYSTEM    = UTC
MEAN_ELEMENT_THEORY = SGP/SGP4

EPOCH          = 2026-03-05T16:00:00.999936
MEAN_MOTION    = 15.99140095
ECCENTRICITY   = .0001664
INCLINATION    = 42.9980
RA_OF_ASC_NODE = 79.7808
ARG_OF_PERICENTER = 276.2831
MEAN_ANOMALY   = 153.5183

EPHEMERIS_TYPE = 0
CLASSIFICATION_TYPE = U
NORAD_CAT_ID   = 68009
ELEMENT_SET_NO = 999
REV_AT_EPOCH   = 223
BSTAR          = -.28928E-2
MEAN_MOTION_DOT = -.1462409E-1
MEAN_MOTION_DDOT = .65115E-3

CCSDS_OMM_VERS = 2.0
CREATION_DATE  = 
ORIGINATOR     = 

OBJECT_NAME    = STARLINK-36953
OBJECT_ID      = 2026-039AA
CENTER_NAME    = EARTH
REF_FRAME      = TEME
TIME_SYSTEM    = UTC
MEAN_ELEMENT_THEORY = SGP/SGP4

EPOCH          = 2026-03-05T16:00:00.999936
MEAN_MOTION    = 15.99407069
ECCENTRICITY   = .000179
INCLINATION    = 42.9980
RA_OF_ASC_NODE = 79.7717
ARG_OF_PERICENTER = 272.1624
MEAN_ANOMALY   = 161.1441

EPHEMERIS_TYPE = 0
CLASSIFICATION_TYPE = U
NORAD_CAT_ID   = 68010
ELEMENT_SET_NO = 999
REV_AT_EPOCH   = 223
BSTAR          = -.28381E-2
MEAN_MOTION_DOT = -.145683E-1
MEAN_MOTION_DDOT = .64844E-3

CCSDS_OMM_VERS = 2.0
CREATION_DATE  = 
ORIGINATOR     = 

OBJECT_NAME    = STARLINK-36991
OBJECT_ID      = 2026-039AB
CENTER_NAME    = EARTH
REF_FRAME      = TEME
TIME_SYSTEM    = UTC
MEAN_ELEMENT_THEORY = SGP/SGP4

EPOCH          = 2026-03-05T16:00:00.999936
MEAN_MOTION    = 15.99542450
ECCENTRICITY   = .0001805
INCLINATION    = 42.9979
RA_OF_ASC_NODE = 79.7676
ARG_OF_PERICENTER = 273.6951
MEAN_ANOMALY   = 161.3198

EPHEMERIS_TYPE = 0
CLASSIFICATION_TYPE = U
NORAD_CAT_ID   = 68011
ELEMENT_SET_NO = 999
REV_AT_EPOCH   = 223
BSTAR          = -.2816E-2
MEAN_MOTION_DOT = -.145667E-1
MEAN_MOTION_DDOT = .64925E-3

CCSDS_OMM_VERS = 2.0
CREATION_DATE  = 
ORIGINATOR     = 

OBJECT_NAME    = STARLINK-36936
OBJECT_ID      = 2026-039AC
CENTER_NAME    = EARTH
REF_FRAME      = TEME
TIME_SYSTEM    = UTC
MEAN_ELEMENT_THEORY = SGP/SGP4

EPOCH          = 2026-03-05T16:00:00.999936
MEAN_MOTION    = 15.99804020
ECCENTRICITY   = .0001772
INCLINATION    = 42.9979
RA_OF_ASC_NODE = 79.7586
ARG_OF_PERICENTER = 277.3415
MEAN_ANOMALY   = 161.0232

EPHEMERIS_TYPE = 0
CLASSIFICATION_TYPE = U
NORAD_CAT_ID   = 68012
ELEMENT_SET_NO = 999
REV_AT_EPOCH   = 223
BSTAR          = -.27588E-2
MEAN_MOTION_DOT = -.1448657E-1
MEAN_MOTION_DDOT = .64451E-3

CCSDS_OMM_VERS = 2.0
CREATION_DATE  = 
ORIGINATOR     = 

OBJECT_NAME    = STARLINK-36967
OBJECT_ID      = 2026-039AD
CENTER_NAME    = EARTH
REF_FRAME      = TEME
TIME_SYSTEM    = UTC
MEAN_ELEMENT_THEORY = SGP/SGP4

EPOCH          = 2026-03-05T16:00:00.999936
MEAN_MOTION    = 15.99271424
ECCENTRICITY   = .0001783
INCLINATION    = 42.9979
RA_OF_ASC_NODE = 79.7761
ARG_OF_PERICENTER = 273.4356
MEAN_ANOMALY   = 158.0561

EPHEMERIS_TYPE = 0
CLASSIFICATION_TYPE = U
NORAD_CAT_ID   = 68013
ELEMENT_SET_NO = 999
REV_AT_EPOCH   = 223
BSTAR          = -.28669E-2
MEAN_MOTION_DOT = -.1460269E-1
MEAN_MOTION_DDOT = .65031E-3

CCSDS_OMM_VERS = 2.0
CREATION_DATE  = 
ORIGINATOR     = 

OBJECT_NAME    = STARLINK-36985
OBJECT_ID      = 2026-039AE
CENTER_NAME    = EARTH
REF_FRAME      = TEME
TIME_SYSTEM    = UTC
MEAN_ELEMENT_THEORY = SGP/SGP4

EPOCH          = 2026-03-05T16:00:00.999936
MEAN_MOTION    = 15.99664817
ECCENTRICITY   = .0001784
INCLINATION    = 42.9979
RA_OF_ASC_NODE = 79.7633
ARG_OF_PERICENTER = 275.9053
MEAN_ANOMALY   = 160.7263

EPHEMERIS_TYPE = 0
CLASSIFICATION_TYPE = U
NORAD_CAT_ID   = 68014
ELEMENT_SET_NO = 999
REV_AT_EPOCH   = 223
BSTAR          = -.27794E-2
MEAN_MOTION_DOT = -.1447957E-1
MEAN_MOTION_DDOT = .64297E-3

