STARLINK-36889          
1 68006U 26039W   26064.66667824 -.01468742  65366-3 -29695-2 0  9999
2 68006  42.9980  79.7928 0001815 275.2592 149.7007 15.98754747  2235
STARLINK-36592          
1 68007U 26039X   26064.66667824 -.01469756  65538-3 -29500-2 0  9992
2 68007  42.9980  79.7893 0001792 273.0445 153.4885 15.98883217  2235
STARLINK-36911          
1 68008U 26039Y   26064.66667824 -.01466866  65392-3 -29224-2 0  9993
2 68008  42.9982  79.7851 0001864 271.0297 157.1847 15.99013799  2235
STARLINK-36956          
1 68009U 26039Z   26064.66667824 -.01462409  65115-3 -28928-2 0  9996
2 68009  42.9980  79.7808 0001664 276.2831 153.5183 15.99140095  2238
STARLINK-36953          
1 68010U 26039AA  26064.66667824 -.01456830  64844-3 -28381-2 0  9990
2 68010  42.9980  79.7717 0001790 272.1624 161.1441 15.99407069  2233
STARLINK-36991          
1 68011U 26039AB  26064.66667824 -.01456670  64925-3 -28160-2 0  9998
2 68011  42.9979  79.7676 0001805 273.6951 161.3198 15.99542450  2237
STARLINK-36936          
1 68012U 26039AC  26064.66667824 -.01448657  64451-3 -27588-2 0  9992
2 68012  42.9979  79.7586 0001772 277.3415 161.0232 15.99804020  2237
STARLINK-36967          
1 68013U 26039AD  26064.66667824 -.01460269  65031-3 -28669-2 0  9992
2 68013  42.9979  79.7761 0001783 273.4356 158.0561 15.99271424  2233
STARLINK-36985          
1 68014U 26039AE  26064.66667824 -.01447957  64297-3 -27794-2 0  9993
2 68014  42.9979  79.7633 0001784 275.9053 160.7263 15.99664817  2235
